{"type":"FeatureCollection","name":"C01-WORLD-REMOTE-RELATION-v0.1","crs":{"type":"name","properties":{"name":"urn:ogc:def:crs:OGC::CRS84"}},"oleander":{"decision_object_id":"C01-WORLD-REMOTE-RELATION-v0.1","world_id":"C01-WORLD-REMOTE-RELATION","revision":"v0.1","representation":"RELATION_LEVEL_SOURCE_BOUND","field_observed":0,"field_measured":0,"claim_ceiling":"Only the published camera anchor is coordinate-bearing. Other relations are semantic/topological carriers with null geometry until a traceable spatial source is ingested.","does_not_prove":["survey geometry","current pedestrian usability","heritage protection boundary","drainage performance","property rights","implementation permission","Xianxia Ancient Road alignment through Guangdu village","identity of REL-ROUTE-PRIMARY-01 as Xianxia Ancient Road"],"source_registry":[{"source_id":"SRC-COMMONS-DAGONGDIAN-20180623","type":"published_geotagged_image","title":"Jiangshan Dagongdian 2018.06.23 18-00-11.jpg","source_url":"https://commons.wikimedia.org/wiki/File:Jiangshan_Dagongdian_2018.06.23_18-00-11.jpg","author":"Zhangzhugang","captured_at":"2018-06-23T18:00:11+08:00","license":"CC BY-SA 4.0","claim":"camera_location_only","coordinate":[118.460507,28.42823],"coordinate_semantics":"camera point of view; not building centroid, parcel, survey control, or heritage boundary"},{"source_id":"SRC-PUBLIC-GUANGDU-RELATIONS","type":"public_reporting","claim":"village_relation_semantics_only"},{"source_id":"SRC-QUZHOU-DAILY-GUANGDU-20220815","type":"published_reporting","title":"广渡，浙赣边界的文化名村","published_at":"2022-08-15","source_url":"https://finance.sina.com.cn/jjxw/2022-08-15/doc-imizirav8153420.shtml","claim":"Dagongdian is at the northeast end of Guangdu village and beside Guangdu Port; topological relation only, no alignment or metric geometry"},{"source_id":"SRC-CHINA-COM-QZ-GUANGDU-20231204","type":"published_reporting","title":"古韵广渡文化空间","published_at":"2023-12-04","source_url":"https://qz.china.com.cn/2023-12/04/content_42621667.html","claim":"Guangdu village contains seven protected heritage units, more than 30 ancient residences, and multiple ancient wells, trees and lanes; inventory/topology only, no footprint or alignment geometry"},{"source_id":"SRC-ZJOL-GUANGDU-XIANXIA-20210421","type":"published_reporting","title":"峡口广渡复旧如初唤醒古村记忆","published_at":"2021-04-21","source_url":"https://town.zjol.com.cn/czjsb/202104/t20210421_22418139.shtml","claim":"Guangdu is described as a thousand-year-old village on the Xianxia Ancient Road; historical-network membership only, no village-scale route identity, alignment, width or metric geometry"},{"source_id":"SRC-WZUT-RURAL-DESIGN-COMP-2023","type":"published_project_brief","title":"Guangdu village rural-design project brief","claim":"X425 county road passes through Guangdu village and provides a road-network connection toward Jiangshan urban area; topology only, no centerline, width, survey coordinates, or binding to REL-ROUTE-PRIMARY-01"}]},"features":[{"type":"Feature","id":"ANCHOR-DAGONGDIAN-CAMERA","geometry":{"type":"Point","coordinates":[118.460507,28.42823]},"properties":{"stable_id":"ANCHOR-DAGONGDIAN-CAMERA","role":"REMOTE_CAMERA_ANCHOR","evidence":"SOURCE","confidence":"PUBLISHED_COORDINATE_NOT_SURVEY_CONTROL","source_id":"SRC-COMMONS-DAGONGDIAN-20180623","source_claim":"camera_location_only","coordinate_semantics":"point_of_view","field_observed":0,"field_measured":0}},{"type":"Feature","id":"REL-WATER-01","geometry":null,"properties":{"stable_id":"REL-WATER-01","role":"WATER_RELATION","evidence":"SOURCE_TOPOLOGY","confidence":"PUBLISHED_TOPOLOGY_NO_GEOMETRY","source_id":"SRC-QUZHOU-DAILY-GUANGDU-20220815","claim":"Dagongdian at village northeast end beside Guangdu Port; water/village topology asserted, alignment unknown","topology":{"subject":"Dagongdian","relation":"BESIDE","object":"Guangdu Port","village_relation":"NORTHEAST_END"},"field_observed":0,"field_measured":0}},{"type":"Feature","id":"REL-XIANXIA-NETWORK-01","geometry":null,"properties":{"stable_id":"REL-XIANXIA-NETWORK-01","role":"HISTORICAL_ROUTE_NETWORK_MEMBERSHIP","evidence":"SOURCE_TOPOLOGY","confidence":"PUBLISHED_NETWORK_MEMBERSHIP_NO_VILLAGE_ALIGNMENT","source_id":"SRC-ZJOL-GUANGDU-XIANXIA-20210421","claim":"Guangdu village is on the Xianxia Ancient Road historical network; village-scale route identity and alignment unknown","topology":{"subject":"Guangdu village","relation":"ON_HISTORICAL_ROUTE_NETWORK","object":"Xianxia Ancient Road"},"route_identity_binding_to_rel_route_primary_01":0,"alignment_asserted":0,"field_observed":0,"field_measured":0}},{"type":"Feature","id":"REL-ROUTE-PRIMARY-01","geometry":null,"properties":{"stable_id":"REL-ROUTE-PRIMARY-01","role":"PRIMARY_ROUTE_RELATION","evidence":"SOURCE_RELATION","confidence":"RELATION_ONLY","source_id":"SRC-PUBLIC-GUANGDU-RELATIONS","claim":"primary route relation; alignment unknown","field_observed":0,"field_measured":0}},{"type":"Feature","id":"REL-ROUTE-SECONDARY-01","geometry":null,"properties":{"stable_id":"REL-ROUTE-SECONDARY-01","role":"SECONDARY_ROUTE_RELATION","evidence":"INFERENCE_CARRIER","confidence":"UNKNOWN_GEOMETRY","source_id":"SRC-PUBLIC-GUANGDU-RELATIONS","claim":"secondary connection carrier; geometry not asserted","field_observed":0,"field_measured":0}},{"type":"Feature","id":"REL-ROUTE-SECONDARY-02","geometry":null,"properties":{"stable_id":"REL-ROUTE-SECONDARY-02","role":"SECONDARY_ROUTE_RELATION","evidence":"INFERENCE_CARRIER","confidence":"UNKNOWN_GEOMETRY","source_id":"SRC-PUBLIC-GUANGDU-RELATIONS","claim":"secondary connection carrier; geometry not asserted","field_observed":0,"field_measured":0}},{"type":"Feature","id":"REL-CLUSTER-01","geometry":null,"properties":{"stable_id":"REL-CLUSTER-01","role":"HERITAGE_CLUSTER_RELATION","evidence":"SOURCE_TOPOLOGY","confidence":"PUBLISHED_INVENTORY_TOPOLOGY_NO_GEOMETRY","source_id":"SRC-CHINA-COM-QZ-GUANGDU-20231204","claim":"Guangdu village contains a distributed heritage fabric: seven protected heritage units, more than 30 ancient residences, and multiple ancient wells, trees and lanes; inventory/topology asserted, footprint and alignment unknown","topology":{"container":"Guangdu village","protected_heritage_units_count":7,"ancient_residences_count_min":30,"other_fabric":["ancient wells","ancient trees","ancient lanes"],"named_protected_units":["Dagongdian","Mao ancestral hall","Songfeng Temple","Zhenxiao archway","Jiexiao archway","Baguting","Bagua well"]},"field_observed":0,"field_measured":0}},{"type":"Feature","id":"REL-X425-NETWORK-01","geometry":null,"properties":{"stable_id":"REL-X425-NETWORK-01","role":"CURRENT_ROAD_NETWORK_MEMBERSHIP","evidence":"SOURCE_TOPOLOGY","confidence":"PUBLISHED_NETWORK_RELATION_NO_ALIGNMENT","source_id":"SRC-WZUT-RURAL-DESIGN-COMP-2023","claim":"X425 county road passes through Guangdu village; network relation asserted, village-scale alignment and width unknown","topology":{"subject":"X425 county road","relation":"PASSES_THROUGH","object":"Guangdu village"},"route_identity_binding_to_rel_route_primary_01":0,"alignment_asserted":0,"width_asserted":0,"field_observed":0,"field_measured":0}}]}